[{"OBJECT_NAME":"OBJECT M","OBJECT_ID":"2024-205M","EPOCH":"2026-03-09T22:23:47.520096","MEAN_MOTION":15.27663844,"ECCENTRICITY":0.00036602,"INCLINATION":97.3915,"RA_OF_ASC_NODE":144.193,"ARG_OF_PERICENTER":310.2554,"MEAN_ANOMALY":49.8364,"EPHEMERIS_TYPE":0,"CLASSIFICATION_TYPE":"U","NORAD_CAT_ID":61905,"ELEMENT_SET_NO":999,"REV_AT_EPOCH":7334,"BSTAR":0.00036391974,"MEAN_MOTION_DOT":9.771e-5,"MEAN_MOTION_DDOT":0},{"OBJECT_NAME":"STARLINK-33840","OBJECT_ID":"2025-085U","EPOCH":"2026-03-09T22:08:24.555552","MEAN_MOTION":15.27586233,"ECCENTRICITY":8.435e-5,"INCLINATION":43.001,"RA_OF_ASC_NODE":29.7618,"ARG_OF_PERICENTER":233.9741,"MEAN_ANOMALY":126.1032,"EPHEMERIS_TYPE":0,"CLASSIFICATION_TYPE":"U","NORAD_CAT_ID":63682,"ELEMENT_SET_NO":999,"REV_AT_EPOCH":4890,"BSTAR":0.000946989,"MEAN_MOTION_DOT":0.00025893,"MEAN_MOTION_DDOT":0}]
